start=new Date('2021-09-22T00:00:00.000Z').valueOf();
sats=[{"RA_OF_ASC_NODE":"313.3253","COUNTRY_CODE":"US","OBJECT_ID":"2021-017A","BSTAR":"0.00006181200000","TLE_LINE2":"2 47722  53.0565 313.3253 0000745 135.6908 224.4141 15.06396604 32335","REV_AT_EPOCH":"3233","APOAPSIS":"547.740","RCS_SIZE":"LARGE","TLE_LINE1":"1 47722U 21017A   21264.83231890  .00000640  00000-0  61812-4 0  9994","DECAY_DATE":null,"PERIAPSIS":"546.708","SEMIMAJOR_AXIS":"6925.359","TIME_SYSTEM":"UTC","MEAN_ANOMALY":"224.4141","CLASSIFICATION_TYPE":"U","NORAD_CAT_ID":"47722","REF_FRAME":"TEME","EPOCH":"2021-09-21T19:58:32.352960","MEAN_MOTION_DOT":"0.00000640","MEAN_MOTION_DDOT":"0.0000000000000","ARG_OF_PERICENTER":"135.6908","FILE":"3122258","MEAN_MOTION":"15.06396604","GP_ID":"185188362","OBJECT_TYPE":"PAYLOAD","EPHEMERIS_TYPE":"0","ELEMENT_SET_NO":"999","INCLINATION":"53.0565","OBJECT_NAME":"STARLINK-2068","PERIOD":"95.592","SITE":"AFETR","MEAN_ELEMENT_THEORY":"SGP4","CENTER_NAME":"EARTH","LAUNCH_DATE":"2021-03-04","ECCENTRICITY":"0.00007450"},{"PERIAPSIS":"346.380","SEMIMAJOR_AXIS":"6727.830","TIME_SYSTEM":"UTC","MEAN_ANOMALY":"7.3082","CLASSIFICATION_TYPE":"U","NORAD_CAT_ID":"47723","TLE_LINE1":"1 47723U 21017B   21264.43948826  .00029029  00000-0  21020-3 0  9993","DECAY_DATE":null,"REV_AT_EPOCH":"3294","APOAPSIS":"353.010","RCS_SIZE":"LARGE","RA_OF_ASC_NODE":"264.7423","COUNTRY_CODE":"US","OBJECT_ID":"2021-017B","TLE_LINE2":"2 47723  53.0417 264.7423 0004927 352.7864   7.3082 15.73222878 32943","BSTAR":"0.00021020000000","CENTER_NAME":"EARTH","LAUNCH_DATE":"2021-03-04","ECCENTRICITY":"0.00049270","PERIOD":"91.532","SITE":"AFETR","MEAN_ELEMENT_THEORY":"SGP4","OBJECT_TYPE":"PAYLOAD","EPHEMERIS_TYPE":"0","ELEMENT_SET_NO":"999","INCLINATION":"53.0417","OBJECT_NAME":"STARLINK-2107","EPOCH":"2021-09-21T10:32:51.785664","REF_FRAME":"TEME","MEAN_MOTION_DOT":"0.00029029","MEAN_MOTION_DDOT":"0.0000000000000","ARG_OF_PERICENTER":"352.7864","FILE":"3121847","MEAN_MOTION":"15.73222878","GP_ID":"185157696"},{"FILE":"3121847","MEAN_MOTION":"15.73194653","GP_ID":"185157929","EPOCH":"2021-09-21T10:32:43.223424","REF_FRAME":"TEME","MEAN_MOTION_DOT":"0.00031648","MEAN_MOTION_DDOT":"0.0000000000000","ARG_OF_PERICENTER":"351.2155","ELEMENT_SET_NO":"999","INCLINATION":"53.0420","OBJECT_NAME":"STARLINK-2116","OBJECT_TYPE":"PAYLOAD","EPHEMERIS_TYPE":"0","MEAN_ELEMENT_THEORY":"SGP4","SITE":"AFETR","PERIOD":"91.533","LAUNCH_DATE":"2021-03-04","ECCENTRICITY":"0.00048400","CENTER_NAME":"EARTH","OBJECT_ID":"2021-017C","TLE_LINE2":"2 47724  53.0420 264.7436 0004840 351.2155   8.8777 15.73194653 32916","BSTAR":"0.00022897000000","RA_OF_ASC_NODE":"264.7436","COUNTRY_CODE":"US","APOAPSIS":"353.032","RCS_SIZE":"LARGE","REV_AT_EPOCH":"3291","DECAY_DATE":null,"TLE_LINE1":"1 47724U 21017C   21264.43938916  .00031648  00000-0  22897-3 0  9996","MEAN_ANOMALY":"8.8777","CLASSIFICATION_TYPE":"U","NORAD_CAT_ID":"47724","PERIAPSIS":"346.519","TIME_SYSTEM":"UTC","SEMIMAJOR_AXIS":"6727.910"},{"MEAN_ELEMENT_THEORY":"SGP4","SITE":"AFETR","PERIOD":"95.593","LAUNCH_DATE":"2021-03-04","ECCENTRICITY":"0.00007250","CENTER_NAME":"EARTH","FILE":"3122258","GP_ID":"185190112","MEAN_MOTION":"15.06394183","MEAN_MOTION_DOT":"-0.00003030","MEAN_MOTION_DDOT":"0.0000000000000","REF_FRAME":"TEME","EPOCH":"2021-09-21T20:49:39.982368","ARG_OF_PERICENTER":"98.9607","ELEMENT_SET_NO":"999","INCLINATION":"53.0563","OBJECT_NAME":"STARLINK-2125","OBJECT_TYPE":"PAYLOAD","EPHEMERIS_TYPE":"0","DECAY_DATE":null,"TLE_LINE1":"1 47725U 21017D   21264.86782387 -.00003030  00000-0 -18467-3 0  9997","MEAN_ANOMALY":"261.1465","NORAD_CAT_ID":"47725","CLASSIFICATION_TYPE":"U","TIME_SYSTEM":"UTC","SEMIMAJOR_AXIS":"6925.366","PERIAPSIS":"546.729","OBJECT_ID":"2021-017D","TLE_LINE2":"2 47725  53.0563 318.1610 0000725  98.9607 261.1465 15.06394183 32215","BSTAR":"-0.00018467000000","COUNTRY_CODE":"US","RA_OF_ASC_NODE":"318.1610","APOAPSIS":"547.733","RCS_SIZE":"LARGE","REV_AT_EPOCH":"3221"},{"APOAPSIS":"547.776","RCS_SIZE":"MEDIUM","REV_AT_EPOCH":"3158","OBJECT_ID":"2021-017E","BSTAR":"0.00011335000000","TLE_LINE2":"2 47726  53.0568 318.2282 0000834 110.2553 249.8526 15.06404774 31584","COUNTRY_CODE":"US","RA_OF_ASC_NODE":"318.2282","MEAN_ANOMALY":"249.8526","NORAD_CAT_ID":"47726","CLASSIFICATION_TYPE":"U","TIME_SYSTEM":"UTC","SEMIMAJOR_AXIS":"6925.334","PERIAPSIS":"546.621","DECAY_DATE":null,"TLE_LINE1":"1 47726U 21017E   21264.85308371  .00001408  00000-0  11335-3 0  9996","INCLINATION":"53.0568","ELEMENT_SET_NO":"999","OBJECT_NAME":"STARLINK-2126","OBJECT_TYPE":"PAYLOAD","EPHEMERIS_TYPE":"0","FILE":"3122167","GP_ID":"185167029","MEAN_MOTION":"15.06404774","MEAN_MOTION_DDOT":"0.0000000000000","MEAN_MOTION_DOT":"0.00001408","REF_FRAME":"TEME","EPOCH":"2021-09-21T20:28:26.432544","ARG_OF_PERICENTER":"110.2553","LAUNCH_DATE":"2021-03-04","ECCENTRICITY":"0.00008340","CENTER_NAME":"EARTH","MEAN_ELEMENT_THEORY":"SGP4","SITE":"AFETR","PERIOD":"95.592"},{"DECAY_DATE":null,"TLE_LINE1":"1 47727U 21017F   21264.43926539  .00031137  00000-0  22519-3 0  9991","NORAD_CAT_ID":"47727","CLASSIFICATION_TYPE":"U","MEAN_ANOMALY":"13.1244","TIME_SYSTEM":"UTC","SEMIMAJOR_AXIS":"6727.866","PERIAPSIS":"346.241","BSTAR":"0.00022519000000","TLE_LINE2":"2 47727  53.0416 264.7388 0005188 346.9639  13.1244 15.73210243 32950","OBJECT_ID":"2021-017F","COUNTRY_CODE":"US","RA_OF_ASC_NODE":"264.7388","RCS_SIZE":"LARGE","APOAPSIS":"353.221","REV_AT_EPOCH":"3295","MEAN_ELEMENT_THEORY":"SGP4","SITE":"AFETR","PERIOD":"91.533","ECCENTRICITY":"0.00051880","LAUNCH_DATE":"2021-03-04","CENTER_NAME":"EARTH","GP_ID":"185157197","MEAN_MOTION":"15.73210243","FILE":"3121847","ARG_OF_PERICENTER":"346.9639","MEAN_MOTION_DDOT":"0.0000000000000","MEAN_MOTION_DOT":"0.00031137","EPOCH":"2021-09-21T10:32:32.529696","REF_FRAME":"TEME","OBJECT_NAME":"STARLINK-2129","INCLINATION":"53.0416","ELEMENT_SET_NO":"999","EPHEMERIS_TYPE":"0","OBJECT_TYPE":"PAYLOAD"},{"FILE":"3121847","GP_ID":"185158429","MEAN_MOTION":"15.06401263","MEAN_MOTION_DOT":"0.00000769","MEAN_MOTION_DDOT":"0.0000000000000","REF_FRAME":"TEME","EPOCH":"2021-09-21T10:18:02.626848","ARG_OF_PERICENTER":"114.3656","ELEMENT_SET_NO":"999","INCLINATION":"53.0576","OBJECT_NAME":"STARLINK-2131","OBJECT_TYPE":"PAYLOAD","EPHEMERIS_TYPE":"0","SITE":"AFETR","MEAN_ELEMENT_THEORY":"SGP4","PERIOD":"95.592","LAUNCH_DATE":"2021-03-04","ECCENTRICITY":"0.00006660","CENTER_NAME":"EARTH","OBJECT_ID":"2021-017G","TLE_LINE2":"2 47728  53.0576 320.1362 0000666 114.3656 245.7403 15.06401263 32207","BSTAR":"0.00007048800000","COUNTRY_CODE":"US","RA_OF_ASC_NODE":"320.1362","APOAPSIS":"547.671","RCS_SIZE":"LARGE","REV_AT_EPOCH":"3220","DECAY_DATE":null,"TLE_LINE1":"1 47728U 21017G   21264.42919707  .00000769  00000-0  70488-4 0  9996","MEAN_ANOMALY":"245.7403","NORAD_CAT_ID":"47728","CLASSIFICATION_TYPE":"U","TIME_SYSTEM":"UTC","SEMIMAJOR_AXIS":"6925.345","PERIAPSIS":"546.748"},{"MEAN_ELEMENT_THEORY":"SGP4","SITE":"AFETR","PERIOD":"93.420","LAUNCH_DATE":"2021-03-04","ECCENTRICITY":"0.00012610","CENTER_NAME":"EARTH","FILE":"3122258","GP_ID":"185189615","MEAN_MOTION":"15.41433198","MEAN_MOTION_DDOT":"0.0000000000000","MEAN_MOTION_DOT":"-0.00309785","REF_FRAME":"TEME","EPOCH":"2021-09-21T13:17:28.272480","ARG_OF_PERICENTER":"332.5402","INCLINATION":"53.0423","ELEMENT_SET_NO":"999","OBJECT_NAME":"STARLINK-2132","OBJECT_TYPE":"PAYLOAD","EPHEMERIS_TYPE":"0","DECAY_DATE":null,"TLE_LINE1":"1 47729U 21017H   21264.55379945 -.00309785  00000-0 -75819-2 0  9998","MEAN_ANOMALY":"27.5536","NORAD_CAT_ID":"47729","CLASSIFICATION_TYPE":"U","SEMIMAJOR_AXIS":"6820.016","TIME_SYSTEM":"UTC","PERIAPSIS":"441.021","OBJECT_ID":"2021-017H","TLE_LINE2":"2 47729  53.0423 266.3627 0001261 332.5402  27.5536 15.41433198 32900","BSTAR":"-0.00758190000000","COUNTRY_CODE":"US","RA_OF_ASC_NODE":"266.3627","APOAPSIS":"442.741","RCS_SIZE":"LARGE","REV_AT_EPOCH":"3290"},{"MEAN_MOTION_DDOT":"0.0000000000000","MEAN_MOTION_DOT":"-0.00000865","EPOCH":"2021-09-21T14:00:17.408448","REF_FRAME":"TEME","ARG_OF_PERICENTER":"103.3764","FILE":"3122258","GP_ID":"185188363","MEAN_MOTION":"15.06396843","OBJECT_TYPE":"PAYLOAD","EPHEMERIS_TYPE":"0","INCLINATION":"53.0578","ELEMENT_SET_NO":"999","OBJECT_NAME":"STARLINK-2140","PERIOD":"95.592","MEAN_ELEMENT_THEORY":"SGP4","SITE":"AFETR","CENTER_NAME":"EARTH","LAUNCH_DATE":"2021-03-04","ECCENTRICITY":"0.00010180","COUNTRY_CODE":"US","RA_OF_ASC_NODE":"334.4452","OBJECT_ID":"2021-017J","BSTAR":"-0.00003917300000","TLE_LINE2":"2 47730  53.0578 334.4452 0001018 103.3764 256.7338 15.06396843 31968","REV_AT_EPOCH":"3196","APOAPSIS":"547.928","RCS_SIZE":"LARGE","TLE_LINE1":"1 47730U 21017J   21264.58353482 -.00000865  00000-0 -39173-4 0  9993","DECAY_DATE":null,"SEMIMAJOR_AXIS":"6925.358","TIME_SYSTEM":"UTC","PERIAPSIS":"546.518","MEAN_ANOMALY":"256.7338","NORAD_CAT_ID":"47730","CLASSIFICATION_TYPE":"U"},{"COUNTRY_CODE":"US","RA_OF_ASC_NODE":"330.0097","OBJECT_ID":"2021-017K","TLE_LINE2":"2 47731  53.0566 330.0097 0001149 108.2913 251.8201 15.06399964 32028","BSTAR":"0.00007295300000","REV_AT_EPOCH":"3202","APOAPSIS":"548.009","RCS_SIZE":"LARGE","TLE_LINE1":"1 47731U 21017K   21264.45776759  .00000805  00000-0  72953-4 0  9991","DECAY_DATE":null,"SEMIMAJOR_AXIS":"6925.349","TIME_SYSTEM":"UTC","PERIAPSIS":"546.418","MEAN_ANOMALY":"251.8201","NORAD_CAT_ID":"47731","CLASSIFICATION_TYPE":"U","MEAN_MOTION_DOT":"0.00000805","MEAN_MOTION_DDOT":"0.0000000000000","EPOCH":"2021-09-21T10:59:11.119776","REF_FRAME":"TEME","ARG_OF_PERICENTER":"108.2913","FILE":"3121847","GP_ID":"185157697","MEAN_MOTION":"15.06399964","OBJECT_TYPE":"PAYLOAD","EPHEMERIS_TYPE":"0","INCLINATION":"53.0566","ELEMENT_SET_NO":"999","OBJECT_NAME":"STARLINK-2141","PERIOD":"95.592","MEAN_ELEMENT_THEORY":"SGP4","SITE":"AFETR","CENTER_NAME":"EARTH","LAUNCH_DATE":"2021-03-04","ECCENTRICITY":"0.00011490"}];
